[{"OBJECT_NAME":"ONEWEB-0317","OBJECT_ID":"2021-075AE","EPOCH":"2026-03-09T20:59:49.038432","MEAN_MOTION":13.12444063,"ECCENTRICITY":0.0002426,"INCLINATION":87.9005,"RA_OF_ASC_NODE":10.376,"ARG_OF_PERICENTER":91.0608,"MEAN_ANOMALY":269.0798,"EPHEMERIS_TYPE":0,"CLASSIFICATION_TYPE":"U","NORAD_CAT_ID":49103,"ELEMENT_SET_NO":999,"REV_AT_EPOCH":22216,"BSTAR":-0.00039740904,"MEAN_MOTION_DOT":-1.3e-6,"MEAN_MOTION_DDOT":0},{"OBJECT_NAME":"SL-14 DEB","OBJECT_ID":"1991-056H","EPOCH":"2026-03-09T11:35:06.232992","MEAN_MOTION":13.06822582,"ECCENTRICITY":0.00514135,"INCLINATION":82.4151,"RA_OF_ASC_NODE":228.9631,"ARG_OF_PERICENTER":227.9174,"MEAN_ANOMALY":131.7565,"EPHEMERIS_TYPE":0,"CLASSIFICATION_TYPE":"U","NORAD_CAT_ID":45271,"ELEMENT_SET_NO":999,"REV_AT_EPOCH":28881,"BSTAR":-0.00058687374,"MEAN_MOTION_DOT":-1.84e-6,"MEAN_MOTION_DDOT":0}]
